[{"OBJECT_NAME":"STARLINK-35578","OBJECT_ID":"2025-240Y","EPOCH":"2026-03-09T23:32:30.283584","MEAN_MOTION":15.30218173,"ECCENTRICITY":0.00017757,"INCLINATION":53.1598,"RA_OF_ASC_NODE":61.4029,"ARG_OF_PERICENTER":94.6206,"MEAN_ANOMALY":265.4998,"EPHEMERIS_TYPE":0,"CLASSIFICATION_TYPE":"U","NORAD_CAT_ID":66168,"ELEMENT_SET_NO":999,"REV_AT_EPOCH":2203,"BSTAR":0.00089186102,"MEAN_MOTION_DOT":0.00026163,"MEAN_MOTION_DDOT":0},{"OBJECT_NAME":"AUREOLE 2","OBJECT_ID":"1973-107A","EPOCH":"2026-03-09T19:32:26.968128","MEAN_MOTION":15.58296371,"ECCENTRICITY":0.01243366,"INCLINATION":73.8954,"RA_OF_ASC_NODE":41.4828,"ARG_OF_PERICENTER":3.3524,"MEAN_ANOMALY":356.8494,"EPHEMERIS_TYPE":0,"CLASSIFICATION_TYPE":"U","NORAD_CAT_ID":7003,"ELEMENT_SET_NO":999,"REV_AT_EPOCH":68892,"BSTAR":0.00079431495,"MEAN_MOTION_DOT":0.00087862,"MEAN_MOTION_DDOT":0}]
